{
    "links": {
        "self": "http://www.neowsapp.com/rest/v1/neo/3160733?api_key=iIulBulltgU6a56xZRHN4H3l9WmuAYTsLGpBGhQ2"
    },
    "id": "3160733",
    "neo_reference_id": "3160733",
    "name": "(2003 SK36)",
    "designation": "2003 SK36",
    "nasa_jpl_url": "http://ssd.jpl.nasa.gov/sbdb.cgi?sstr=3160733",
    "absolute_magnitude_h": 21.7,
    "estimated_diameter": {
        "kilometers": {
            "estimated_diameter_min": 0.1214940408,
            "estimated_diameter_max": 0.2716689341
        },
        "meters": {
            "estimated_diameter_min": 121.4940407996,
            "estimated_diameter_max": 271.6689340891
        },
        "miles": {
            "estimated_diameter_min": 0.0754928736,
            "estimated_diameter_max": 0.1688071972
        },
        "feet": {
            "estimated_diameter_min": 398.6025088171,
            "estimated_diameter_max": 891.3023057169
        }
    },
    "is_potentially_hazardous_asteroid": false,
    "close_approach_data": [
        {
            "close_approach_date": "2003-09-02",
            "close_approach_date_full": "2003-Sep-02 09:05",
            "epoch_date_close_approach": 1062493500000,
            "relative_velocity": {
                "kilometers_per_second": "3.7625132748",
                "kilometers_per_hour": "13545.0477891647",
                "miles_per_hour": "8416.3659443285"
            },
            "miss_distance": {
                "astronomical": "0.271148933",
                "lunar": "105.476934937",
                "kilometers": "40563302.82957271",
                "miles": "25204867.613054998"
            },
            "orbiting_body": "Earth"
        }
    ],
    "orbital_data": {
        "orbit_id": "13",
        "orbit_determination_date": "2017-04-06 09:13:49",
        "first_observation_date": "2003-09-19",
        "last_observation_date": "2003-10-25",
        "data_arc_in_days": 36,
        "observations_used": 34,
        "orbit_uncertainty": "6",
        "minimum_orbit_intersection": ".230139",
        "jupiter_tisserand_invariant": "3.406",
        "epoch_osculation": "2459000.5",
        "eccentricity": ".4715790133083855",
        "semi_major_axis": "2.33884736745323",
        "inclination": "2.809957640701074",
        "ascending_node_longitude": "202.3235322550966",
        "orbital_period": "1306.475434219386",
        "perihelion_distance": "1.235896033630721",
        "perihelion_argument": "134.9860395744701",
        "aphelion_distance": "3.441798701275738",
        "perihelion_time": "2459405.101272640959",
        "mean_anomaly": "248.511904368279",
        "mean_motion": ".2755505312773818",
        "equinox": "J2000",
        "orbit_class": {
            "orbit_class_type": "AMO",
            "orbit_class_description": "Near-Earth asteroid orbits similar to that of 1221 Amor",
            "orbit_class_range": "1.017 AU < q (perihelion) < 1.3 AU"
        }
    },
    "is_sentry_object": false
}